{"type":"FeatureCollection","features":[{"type":"Feature","geometry":{"type":"Point","coordinates":[-63.242745,-17.334937,0]},"properties":{"name":"M-40","description":"NO__MZ_","styleUrl":"#point1","icon":"kml_ext_files/kml_symbol_no symbol_0.png"}},{"type":"Feature","geometry":{"type":"Point","coordinates":[-63.242344,-17.335459,0]},"properties":{"name":"M-41","description":"NO__MZ_","styleUrl":"#point1","icon":"kml_ext_files/kml_symbol_no symbol_0.png"}},{"type":"Feature","geometry":{"type":"Point","coordinates":[-63.24143,-17.336282,0]},"properties":{"name":"M-56","description":"NO__MZ_","styleUrl":"#point1","icon":"kml_ext_files/kml_symbol_no symbol_0.png"}},{"type":"Feature","geometry":{"type":"Point","coordinates":[-63.24043,-17.337123,0]},"properties":{"name":"M-57","description":"NO__MZ_","styleUrl":"#point1","icon":"kml_ext_files/kml_symbol_no symbol_0.png"}},{"type":"Feature","geometry":{"type":"Point","coordinates":[-63.240931,-17.336477,0]},"properties":{"name":"EQUIP.","description":"NO__MZ_","styleUrl":"#point1","icon":"kml_ext_files/kml_symbol_no symbol_0.png"}},{"type":"Feature","geometry":{"type":"Point","coordinates":[-63.243713,-17.334376,0]},"properties":{"name":"7","description":"NUM-LOTE","styleUrl":"#point1","icon":"kml_ext_files/kml_symbol_no symbol_0.png"}},{"type":"Feature","geometry":{"type":"Point","coordinates":[-63.243642,-17.334447,0]},"properties":{"name":"6","description":"NUM-LOTE","styleUrl":"#point1","icon":"kml_ext_files/kml_symbol_no symbol_0.png"}},{"type":"Feature","geometry":{"type":"Point","coordinates":[-63.243571,-17.33453,0]},"properties":{"name":"5","description":"NUM-LOTE","styleUrl":"#point1","icon":"kml_ext_files/kml_symbol_no symbol_0.png"}},{"type":"Feature","geometry":{"type":"Point","coordinates":[-63.243502,-17.334613,0]},"properties":{"name":"4","description":"NUM-LOTE","styleUrl":"#point1","icon":"kml_ext_files/kml_symbol_no symbol_0.png"}},{"type":"Feature","geometry":{"type":"Point","coordinates":[-63.243188,-17.334606,0]},"properties":{"name":"1","description":"NUM-LOTE","styleUrl":"#point1","icon":"kml_ext_files/kml_symbol_no symbol_0.png"}},{"type":"Feature","geometry":{"type":"Point","coordinates":[-63.243293,-17.334678,0]},"properties":{"name":"2","description":"NUM-LOTE","styleUrl":"#point1","icon":"kml_ext_files/kml_symbol_no symbol_0.png"}},{"type":"Feature","geometry":{"type":"Point","coordinates":[-63.243413,-17.334749,0]},"properties":{"name":"3","description":"NUM-LOTE","styleUrl":"#point1","icon":"kml_ext_files/kml_symbol_no symbol_0.png"}},{"type":"Feature","geometry":{"type":"Point","coordinates":[-63.243392,-17.334411,0]},"properties":{"name":"11","description":"NUM-LOTE","styleUrl":"#point1","icon":"kml_ext_files/kml_symbol_no symbol_0.png"}},{"type":"Feature","geometry":{"type":"Point","coordinates":[-63.243454,-17.334321,0]},"properties":{"name":"10","description":"NUM-LOTE","styleUrl":"#point1","icon":"kml_ext_files/kml_symbol_no symbol_0.png"}},{"type":"Feature","geometry":{"type":"Point","coordinates":[-63.243512,-17.334231,0]},"properties":{"name":"9","description":"NUM-LOTE","styleUrl":"#point1","icon":"kml_ext_files/kml_symbol_no symbol_0.png"}},{"type":"Feature","geometry":{"type":"Point","coordinates":[-63.243332,-17.334497,0]},"properties":{"name":"12","description":"NUM-LOTE","styleUrl":"#point1","icon":"kml_ext_files/kml_symbol_no symbol_0.png"}},{"type":"Feature","geometry":{"type":"Point","coordinates":[-63.242645,-17.334278,0]},"properties":{"name":"8","description":"NUM-LOTE","styleUrl":"#point1","icon":"kml_ext_files/kml_symbol_no symbol_0.png"}},{"type":"Feature","geometry":{"type":"Point","coordinates":[-63.242881,-17.33443,0]},"properties":{"name":"9","description":"NUM-LOTE","styleUrl":"#point1","icon":"kml_ext_files/kml_symbol_no symbol_0.png"}},{"type":"Feature","geometry":{"type":"Point","coordinates":[-63.242854,-17.333995,0]},"properties":{"name":"17","description":"NUM-LOTE","styleUrl":"#point1","icon":"kml_ext_files/kml_symbol_no symbol_0.png"}},{"type":"Feature","geometry":{"type":"Point","coordinates":[-63.242792,-17.334087,0]},"properties":{"name":"18","description":"NUM-LOTE","styleUrl":"#point1","icon":"kml_ext_files/kml_symbol_no symbol_0.png"}},{"type":"Feature","geometry":{"type":"Point","coordinates":[-63.242732,-17.334174,0]},"properties":{"name":"19","description":"NUM-LOTE","styleUrl":"#point1","icon":"kml_ext_files/kml_symbol_no symbol_0.png"}},{"type":"Feature","geometry":{"type":"Point","coordinates":[-63.242418,-17.334058,0]},"properties":{"name":"1","description":"NUM-LOTE","styleUrl":"#point1","icon":"kml_ext_files/kml_symbol_no symbol_0.png"}},{"type":"Feature","geometry":{"type":"Point","coordinates":[-63.242529,-17.333865,0]},"properties":{"name":"2","description":"NUM-LOTE","styleUrl":"#point1","icon":"kml_ext_files/kml_symbol_no symbol_0.png"}},{"type":"Feature","geometry":{"type":"Point","coordinates":[-63.242607,-17.333727,0]},"properties":{"name":"3","description":"NUM-LOTE","styleUrl":"#point1","icon":"kml_ext_files/kml_symbol_no symbol_0.png"}},{"type":"Feature","geometry":{"type":"Point","coordinates":[-63.242869,-17.335211,0]},"properties":{"name":"1","description":"NUM-LOTE","styleUrl":"#point1","icon":"kml_ext_files/kml_symbol_no symbol_0.png"}},{"type":"Feature","geometry":{"type":"Point","coordinates":[-63.242973,-17.3351,0]},"properties":{"name":"2","description":"NUM-LOTE","styleUrl":"#point1","icon":"kml_ext_files/kml_symbol_no symbol_0.png"}},{"type":"Feature","geometry":{"type":"Point","coordinates":[-63.243045,-17.335013,0]},"properties":{"name":"3","description":"NUM-LOTE","styleUrl":"#point1","icon":"kml_ext_files/kml_symbol_no symbol_0.png"}},{"type":"Feature","geometry":{"type":"Point","coordinates":[-63.2429,-17.334838,0]},"properties":{"name":"5","description":"NUM-LOTE","styleUrl":"#point1","icon":"kml_ext_files/kml_symbol_no symbol_0.png"}},{"type":"Feature","geometry":{"type":"Point","coordinates":[-63.242812,-17.334777,0]},"properties":{"name":"6","description":"NUM-LOTE","styleUrl":"#point1","icon":"kml_ext_files/kml_symbol_no symbol_0.png"}},{"type":"Feature","geometry":{"type":"Point","coordinates":[-63.242709,-17.334719,0]},"properties":{"name":"7","description":"NUM-LOTE","styleUrl":"#point1","icon":"kml_ext_files/kml_symbol_no symbol_0.png"}},{"type":"Feature","geometry":{"type":"Point","coordinates":[-63.242621,-17.334658,0]},"properties":{"name":"8","description":"NUM-LOTE","styleUrl":"#point1","icon":"kml_ext_files/kml_symbol_no symbol_0.png"}},{"type":"Feature","geometry":{"type":"Point","coordinates":[-63.243132,-17.334921,0]},"properties":{"name":"4","description":"NUM-LOTE","styleUrl":"#point1","icon":"kml_ext_files/kml_symbol_no symbol_0.png"}},{"type":"Feature","geometry":{"type":"Point","coordinates":[-63.242446,-17.335644,0]},"properties":{"name":"1","description":"NUM-LOTE","styleUrl":"#point1","icon":"kml_ext_files/kml_symbol_no symbol_0.png"}},{"type":"Feature","geometry":{"type":"Point","coordinates":[-63.242657,-17.335449,0]},"properties":{"name":"2","description":"NUM-LOTE","styleUrl":"#point1","icon":"kml_ext_files/kml_symbol_no symbol_0.png"}},{"type":"Feature","geometry":{"type":"Point","coordinates":[-63.242524,-17.335362,0]},"properties":{"name":"3","description":"NUM-LOTE","styleUrl":"#point1","icon":"kml_ext_files/kml_symbol_no symbol_0.png"}},{"type":"Feature","geometry":{"type":"Point","coordinates":[-63.242406,-17.335294,0]},"properties":{"name":"4","description":"NUM-LOTE","styleUrl":"#point1","icon":"kml_ext_files/kml_symbol_no symbol_0.png"}},{"type":"Feature","geometry":{"type":"Point","coordinates":[-63.242293,-17.335213,0]},"properties":{"name":"5","description":"NUM-LOTE","styleUrl":"#point1","icon":"kml_ext_files/kml_symbol_no symbol_0.png"}},{"type":"Feature","geometry":{"type":"Point","coordinates":[-63.242171,-17.335145,0]},"properties":{"name":"6","description":"NUM-LOTE","styleUrl":"#point1","icon":"kml_ext_files/kml_symbol_no symbol_0.png"}},{"type":"Feature","geometry":{"type":"Point","coordinates":[-63.242047,-17.335064,0]},"properties":{"name":"7","description":"NUM-LOTE","styleUrl":"#point1","icon":"kml_ext_files/kml_symbol_no symbol_0.png"}},{"type":"Feature","geometry":{"type":"Point","coordinates":[-63.241928,-17.335306,0]},"properties":{"name":"8","description":"NUM-LOTE","styleUrl":"#point1","icon":"kml_ext_files/kml_symbol_no symbol_0.png"}},{"type":"Feature","geometry":{"type":"Point","coordinates":[-63.242039,-17.335385,0]},"properties":{"name":"9","description":"NUM-LOTE","styleUrl":"#point1","icon":"kml_ext_files/kml_symbol_no symbol_0.png"}},{"type":"Feature","geometry":{"type":"Point","coordinates":[-63.242171,-17.33546,0]},"properties":{"name":"10","description":"NUM-LOTE","styleUrl":"#point1","icon":"kml_ext_files/kml_symbol_no symbol_0.png"}},{"type":"Feature","geometry":{"type":"Point","coordinates":[-63.242288,-17.33553,0]},"properties":{"name":"11","description":"NUM-LOTE","styleUrl":"#point1","icon":"kml_ext_files/kml_symbol_no symbol_0.png"}},{"type":"Feature","geometry":{"type":"Point","coordinates":[-63.242032,-17.336032,0]},"properties":{"name":"1","description":"NUM-LOTE","styleUrl":"#point1","icon":"kml_ext_files/kml_symbol_no symbol_0.png"}},{"type":"Feature","geometry":{"type":"Point","coordinates":[-63.241893,-17.33594,0]},"properties":{"name":"2","description":"NUM-LOTE","styleUrl":"#point1","icon":"kml_ext_files/kml_symbol_no symbol_0.png"}},{"type":"Feature","geometry":{"type":"Point","coordinates":[-63.24177,-17.335862,0]},"properties":{"name":"3","description":"NUM-LOTE","styleUrl":"#point1","icon":"kml_ext_files/kml_symbol_no symbol_0.png"}},{"type":"Feature","geometry":{"type":"Point","coordinates":[-63.241656,-17.335792,0]},"properties":{"name":"4","description":"NUM-LOTE","styleUrl":"#point1","icon":"kml_ext_files/kml_symbol_no symbol_0.png"}},{"type":"Feature","geometry":{"type":"Point","coordinates":[-63.241536,-17.335715,0]},"properties":{"name":"5","description":"NUM-LOTE","styleUrl":"#point1","icon":"kml_ext_files/kml_symbol_no symbol_0.png"}},{"type":"Feature","geometry":{"type":"Point","coordinates":[-63.241477,-17.33592,0]},"properties":{"name":"6","description":"NUM-LOTE","styleUrl":"#point1","icon":"kml_ext_files/kml_symbol_no symbol_0.png"}},{"type":"Feature","geometry":{"type":"Point","coordinates":[-63.241389,-17.335999,0]},"properties":{"name":"7","description":"NUM-LOTE","styleUrl":"#point1","icon":"kml_ext_files/kml_symbol_no symbol_0.png"}},{"type":"Feature","geometry":{"type":"Point","coordinates":[-63.241309,-17.336073,0]},"properties":{"name":"8","description":"NUM-LOTE","styleUrl":"#point1","icon":"kml_ext_files/kml_symbol_no symbol_0.png"}},{"type":"Feature","geometry":{"type":"Point","coordinates":[-63.241227,-17.336152,0]},"properties":{"name":"9","description":"NUM-LOTE","styleUrl":"#point1","icon":"kml_ext_files/kml_symbol_no symbol_0.png"}},{"type":"Feature","geometry":{"type":"Point","coordinates":[-63.241162,-17.336231,0]},"properties":{"name":"10","description":"NUM-LOTE","styleUrl":"#point1","icon":"kml_ext_files/kml_symbol_no symbol_0.png"}},{"type":"Feature","geometry":{"type":"Point","coordinates":[-63.241085,-17.3363,0]},"properties":{"name":"11","description":"NUM-LOTE","styleUrl":"#point1","icon":"kml_ext_files/kml_symbol_no symbol_0.png"}},{"type":"Feature","geometry":{"type":"Point","coordinates":[-63.241018,-17.336368,0]},"properties":{"name":"12","description":"NUM-LOTE","styleUrl":"#point1","icon":"kml_ext_files/kml_symbol_no symbol_0.png"}},{"type":"Feature","geometry":{"type":"Point","coordinates":[-63.241179,-17.336631,0]},"properties":{"name":"13","description":"NUM-LOTE","styleUrl":"#point1","icon":"kml_ext_files/kml_symbol_no symbol_0.png"}},{"type":"Feature","geometry":{"type":"Point","coordinates":[-63.24126,-17.336559,0]},"properties":{"name":"14","description":"NUM-LOTE","styleUrl":"#point1","icon":"kml_ext_files/kml_symbol_no symbol_0.png"}},{"type":"Feature","geometry":{"type":"Point","coordinates":[-63.241342,-17.336502,0]},"properties":{"name":"15","description":"NUM-LOTE","styleUrl":"#point1","icon":"kml_ext_files/kml_symbol_no symbol_0.png"}},{"type":"Feature","geometry":{"type":"Point","coordinates":[-63.241445,-17.336415,0]},"properties":{"name":"16","description":"NUM-LOTE","styleUrl":"#point1","icon":"kml_ext_files/kml_symbol_no symbol_0.png"}},{"type":"Feature","geometry":{"type":"Point","coordinates":[-63.241532,-17.336341,0]},"properties":{"name":"17","description":"NUM-LOTE","styleUrl":"#point1","icon":"kml_ext_files/kml_symbol_no symbol_0.png"}},{"type":"Feature","geometry":{"type":"Point","coordinates":[-63.24162,-17.336268,0]},"properties":{"name":"18","description":"NUM-LOTE","styleUrl":"#point1","icon":"kml_ext_files/kml_symbol_no symbol_0.png"}},{"type":"Feature","geometry":{"type":"Point","coordinates":[-63.241711,-17.336194,0]},"properties":{"name":"19","description":"NUM-LOTE","styleUrl":"#point1","icon":"kml_ext_files/kml_symbol_no symbol_0.png"}},{"type":"Feature","geometry":{"type":"Point","coordinates":[-63.241798,-17.336123,0]},"properties":{"name":"20","description":"NUM-LOTE","styleUrl":"#point1","icon":"kml_ext_files/kml_symbol_no symbol_0.png"}},{"type":"Feature","geometry":{"type":"Point","coordinates":[-63.243536,-17.334066,0]},"properties":{"name":"8","description":"NUM-LOTE","styleUrl":"#point1","icon":"kml_ext_files/kml_symbol_no symbol_0.png"}},{"type":"Feature","geometry":{"type":"Point","coordinates":[-63.242254,-17.334341,0]},"properties":{"name":"3","description":"NUM-LOTE","styleUrl":"#point1","icon":"kml_ext_files/kml_symbol_no symbol_0.png"}},{"type":"Feature","geometry":{"type":"Point","coordinates":[-63.242067,-17.334449,0]},"properties":{"name":"M-1A","description":"NO__MZ_","styleUrl":"#point1","icon":"kml_ext_files/kml_symbol_no symbol_0.png"}},{"type":"Feature","geometry":{"type":"Point","coordinates":[-63.242963,-17.334324,0]},"properties":{"name":"10","description":"NUM-LOTE","styleUrl":"#point1","icon":"kml_ext_files/kml_symbol_no symbol_0.png"}},{"type":"Feature","geometry":{"type":"Point","coordinates":[-63.243029,-17.334234,0]},"properties":{"name":"11","description":"NUM-LOTE","styleUrl":"#point1","icon":"kml_ext_files/kml_symbol_no symbol_0.png"}},{"type":"Feature","geometry":{"type":"Point","coordinates":[-63.24309,-17.334147,0]},"properties":{"name":"12","description":"NUM-LOTE","styleUrl":"#point1","icon":"kml_ext_files/kml_symbol_no symbol_0.png"}},{"type":"Feature","geometry":{"type":"Point","coordinates":[-63.243164,-17.334054,0]},"properties":{"name":"13","description":"NUM-LOTE","styleUrl":"#point1","icon":"kml_ext_files/kml_symbol_no symbol_0.png"}},{"type":"Feature","geometry":{"type":"Point","coordinates":[-63.243235,-17.333951,0]},"properties":{"name":"14","description":"NUM-LOTE","styleUrl":"#point1","icon":"kml_ext_files/kml_symbol_no symbol_0.png"}},{"type":"Feature","geometry":{"type":"Point","coordinates":[-63.24298,-17.333827,0]},"properties":{"name":"15","description":"NUM-LOTE","styleUrl":"#point1","icon":"kml_ext_files/kml_symbol_no symbol_0.png"}},{"type":"Feature","geometry":{"type":"Point","coordinates":[-63.242922,-17.333906,0]},"properties":{"name":"16","description":"NUM-LOTE","styleUrl":"#point1","icon":"kml_ext_files/kml_symbol_no symbol_0.png"}},{"type":"Feature","geometry":{"type":"Point","coordinates":[-63.24228,-17.334836,0]},"properties":{"name":"13","description":"NUM-LOTE","styleUrl":"#point1","icon":"kml_ext_files/kml_symbol_no symbol_0.png"}},{"type":"Feature","geometry":{"type":"Point","coordinates":[-63.24236,-17.334746,0]},"properties":{"name":"12","description":"NUM-LOTE","styleUrl":"#point1","icon":"kml_ext_files/kml_symbol_no symbol_0.png"}},{"type":"Feature","geometry":{"type":"Point","coordinates":[-63.242421,-17.334677,0]},"properties":{"name":"11","description":"NUM-LOTE","styleUrl":"#point1","icon":"kml_ext_files/kml_symbol_no symbol_0.png"}},{"type":"Feature","geometry":{"type":"Point","coordinates":[-63.242469,-17.334604,0]},"properties":{"name":"10","description":"NUM-LOTE","styleUrl":"#point1","icon":"kml_ext_files/kml_symbol_no symbol_0.png"}},{"type":"Feature","geometry":{"type":"Point","coordinates":[-63.242533,-17.334523,0]},"properties":{"name":"9","description":"NUM-LOTE","styleUrl":"#point1","icon":"kml_ext_files/kml_symbol_no symbol_0.png"}},{"type":"Feature","geometry":{"type":"Point","coordinates":[-63.242486,-17.334879,0]},"properties":{"name":"14","description":"NUM-LOTE","styleUrl":"#point1","icon":"kml_ext_files/kml_symbol_no symbol_0.png"}},{"type":"Feature","geometry":{"type":"Point","coordinates":[-63.242575,-17.334935,0]},"properties":{"name":"15","description":"NUM-LOTE","styleUrl":"#point1","icon":"kml_ext_files/kml_symbol_no symbol_0.png"}},{"type":"Feature","geometry":{"type":"Point","coordinates":[-63.242672,-17.334996,0]},"properties":{"name":"16","description":"NUM-LOTE","styleUrl":"#point1","icon":"kml_ext_files/kml_symbol_no symbol_0.png"}},{"type":"Feature","geometry":{"type":"Point","coordinates":[-63.242763,-17.335055,0]},"properties":{"name":"17","description":"NUM-LOTE","styleUrl":"#point1","icon":"kml_ext_files/kml_symbol_no symbol_0.png"}},{"type":"Feature","geometry":{"type":"Point","coordinates":[-63.242383,-17.333831,0]},"properties":{"name":"M-42","description":"NO__MZ_","styleUrl":"#point1","icon":"kml_ext_files/kml_symbol_no symbol_0.png"}},{"type":"Feature","geometry":{"type":"Point","coordinates":[-63.24379,-17.334163,0]},"properties":{"name":"M-38","description":"NO__MZ_","styleUrl":"#point1","icon":"kml_ext_files/kml_symbol_no symbol_0.png"}},{"type":"Feature","geometry":{"type":"Point","coordinates":[-63.24328,-17.333749,0]},"properties":{"name":"M-39","description":"NO__MZ_","styleUrl":"#point1","icon":"kml_ext_files/kml_symbol_no symbol_0.png"}},{"type":"Feature","geometry":{"type":"Polygon","coordinates":[[[-63.242535,-17.333608],[-63.243398,-17.333916],[-63.243516,-17.333957],[-63.243625,-17.333997],[-63.243551,-17.334172],[-63.243958,-17.334474],[-63.243916,-17.334521],[-63.243474,-17.334986],[-63.242973,-17.33546],[-63.242529,-17.335881],[-63.242404,-17.336033],[-63.241555,-17.336677],[-63.240711,-17.337317],[-63.240218,-17.336848],[-63.240592,-17.33649],[-63.240682,-17.336406],[-63.241139,-17.335994],[-63.241597,-17.33555],[-63.241856,-17.33531],[-63.241843,-17.335156],[-63.24203,-17.334758],[-63.242535,-17.333608]]]},"properties":{"description":"POLI","styleUrl":"#area1","fill-opacity":0,"fill":"#000000","stroke-opacity":1,"stroke":"#000000","stroke-width":1}},{"type":"Feature","geometry":{"type":"Polygon","coordinates":[[[-63.241642,-17.335579],[-63.241697,-17.335615],[-63.241513,-17.335878],[-63.241361,-17.335779],[-63.241558,-17.335587],[-63.241559,-17.335587],[-63.241559,-17.335587],[-63.24156,-17.335586],[-63.24156,-17.335586],[-63.24156,-17.335586],[-63.241561,-17.335585],[-63.241561,-17.335585],[-63.241561,-17.335585],[-63.241562,-17.335584],[-63.241562,-17.335584],[-63.241563,-17.335584],[-63.241563,-17.335583],[-63.241563,-17.335583],[-63.241564,-17.335583],[-63.241564,-17.335582],[-63.241565,-17.335582],[-63.241565,-17.335582],[-63.241565,-17.335582],[-63.241566,-17.335581],[-63.241566,-17.335581],[-63.241567,-17.335581],[-63.241567,-17.33558],[-63.241567,-17.33558],[-63.241568,-17.33558],[-63.241568,-17.33558],[-63.241569,-17.335579],[-63.241569,-17.335579],[-63.241569,-17.335579],[-63.24157,-17.335578],[-63.24157,-17.335578],[-63.241571,-17.335578],[-63.241571,-17.335578],[-63.241572,-17.335577],[-63.241572,-17.335577],[-63.241572,-17.335577],[-63.241573,-17.335577],[-63.241573,-17.335576],[-63.241574,-17.335576],[-63.241574,-17.335576],[-63.241575,-17.335576],[-63.241575,-17.335576],[-63.241576,-17.335575],[-63.241576,-17.335575],[-63.241577,-17.335575],[-63.241577,-17.335575],[-63.241577,-17.335574],[-63.241578,-17.335574],[-63.241578,-17.335574],[-63.241579,-17.335574],[-63.241579,-17.335574],[-63.24158,-17.335574],[-63.24158,-17.335573],[-63.241581,-17.335573],[-63.241581,-17.335573],[-63.241582,-17.335573],[-63.241582,-17.335573],[-63.241583,-17.335572],[-63.241583,-17.335572],[-63.241584,-17.335572],[-63.241584,-17.335572],[-63.241584,-17.335572],[-63.241585,-17.335572],[-63.241585,-17.335571],[-63.241586,-17.335571],[-63.241586,-17.335571],[-63.241587,-17.335571],[-63.241587,-17.335571],[-63.241588,-17.335571],[-63.241588,-17.335571],[-63.241589,-17.335571],[-63.241589,-17.33557],[-63.24159,-17.33557],[-63.24159,-17.33557],[-63.241591,-17.33557],[-63.241591,-17.33557],[-63.241592,-17.33557],[-63.241592,-17.33557],[-63.241593,-17.33557],[-63.241593,-17.33557],[-63.241594,-17.33557],[-63.241594,-17.335569],[-63.241595,-17.335569],[-63.241595,-17.335569],[-63.241596,-17.335569],[-63.241596,-17.335569],[-63.241597,-17.335569],[-63.241597,-17.335569],[-63.241598,-17.335569],[-63.241598,-17.335569],[-63.241599,-17.335569],[-63.241599,-17.335569],[-63.2416,-17.335569],[-63.2416,-17.335569],[-63.241601,-17.335569],[-63.241601,-17.335569],[-63.241602,-17.335569],[-63.241602,-17.335569],[-63.241603,-17.335569],[-63.241603,-17.335569],[-63.241604,-17.335569],[-63.241604,-17.335569],[-63.241605,-17.335569],[-63.241605,-17.335569],[-63.241606,-17.335569],[-63.241606,-17.335569],[-63.241607,-17.335569],[-63.241607,-17.335569],[-63.241608,-17.335569],[-63.241608,-17.335569],[-63.241609,-17.335569],[-63.241609,-17.335569],[-63.24161,-17.335569],[-63.24161,-17.335569],[-63.241611,-17.335569],[-63.241611,-17.335569],[-63.241612,-17.335569],[-63.241612,-17.335569],[-63.241613,-17.335569],[-63.241613,-17.335569],[-63.241614,-17.335569],[-63.241614,-17.335569],[-63.241615,-17.335569],[-63.241615,-17.335569],[-63.241616,-17.335569],[-63.241616,-17.335569],[-63.241617,-17.33557],[-63.241617,-17.33557],[-63.241618,-17.33557],[-63.241618,-17.33557],[-63.241619,-17.33557],[-63.241619,-17.33557],[-63.24162,-17.33557],[-63.24162,-17.33557],[-63.241621,-17.33557],[-63.241621,-17.335571],[-63.241622,-17.335571],[-63.241622,-17.335571],[-63.241623,-17.335571],[-63.241623,-17.335571],[-63.241624,-17.335571],[-63.241624,-17.335571],[-63.241625,-17.335571],[-63.241625,-17.335572],[-63.241626,-17.335572],[-63.241626,-17.335572],[-63.241627,-17.335572],[-63.241627,-17.335572],[-63.241628,-17.335572],[-63.241628,-17.335573],[-63.241629,-17.335573],[-63.241629,-17.335573],[-63.24163,-17.335573],[-63.24163,-17.335573],[-63.241631,-17.335573],[-63.241631,-17.335574],[-63.241631,-17.335574],[-63.241632,-17.335574],[-63.241632,-17.335574],[-63.241633,-17.335574],[-63.241633,-17.335575],[-63.241634,-17.335575],[-63.241634,-17.335575],[-63.241635,-17.335575],[-63.241635,-17.335575],[-63.241636,-17.335576],[-63.241636,-17.335576],[-63.241636,-17.335576],[-63.241637,-17.335576],[-63.241637,-17.335577],[-63.241638,-17.335577],[-63.241638,-17.335577],[-63.241639,-17.335577],[-63.241639,-17.335578],[-63.24164,-17.335578],[-63.24164,-17.335578],[-63.24164,-17.335578],[-63.241641,-17.335579],[-63.241641,-17.335579],[-63.241642,-17.335579],[-63.241642,-17.335579]]]},"properties":{"description":"LOTE","styleUrl":"#area1","fill-opacity":0,"fill":"#000000","stroke-opacity":1,"stroke":"#000000","stroke-width":1}},{"type":"Feature","geometry":{"type":"Polygon","coordinates":[[[-63.243261,-17.334997],[-63.243202,-17.335053],[-63.242939,-17.334882],[-63.243029,-17.334755],[-63.243252,-17.3349],[-63.243253,-17.3349],[-63.243253,-17.3349],[-63.243254,-17.334901],[-63.243254,-17.334901],[-63.243255,-17.334901],[-63.243255,-17.334902],[-63.243256,-17.334902],[-63.243256,-17.334903],[-63.243257,-17.334903],[-63.243257,-17.334903],[-63.243258,-17.334904],[-63.243258,-17.334904],[-63.243259,-17.334905],[-63.243259,-17.334905],[-63.24326,-17.334905],[-63.24326,-17.334906],[-63.243261,-17.334906],[-63.243261,-17.334907],[-63.243262,-17.334907],[-63.243262,-17.334907],[-63.243262,-17.334908],[-63.243263,-17.334908],[-63.243263,-17.334909],[-63.243264,-17.334909],[-63.243264,-17.33491],[-63.243265,-17.33491],[-63.243265,-17.334911],[-63.243266,-17.334911],[-63.243266,-17.334912],[-63.243266,-17.334912],[-63.243267,-17.334913],[-63.243267,-17.334913],[-63.243268,-17.334914],[-63.243268,-17.334914],[-63.243268,-17.334915],[-63.243269,-17.334915],[-63.243269,-17.334916],[-63.243269,-17.334916],[-63.24327,-17.334917],[-63.24327,-17.334917],[-63.243271,-17.334918],[-63.243271,-17.334918],[-63.243271,-17.334919],[-63.243272,-17.334919],[-63.243272,-17.33492],[-63.243272,-17.33492],[-63.243273,-17.334921],[-63.243273,-17.334921],[-63.243273,-17.334922],[-63.243273,-17.334922],[-63.243274,-17.334923],[-63.243274,-17.334924],[-63.243274,-17.334924],[-63.243275,-17.334925],[-63.243275,-17.334925],[-63.243275,-17.334926],[-63.243275,-17.334926],[-63.243276,-17.334927],[-63.243276,-17.334928],[-63.243276,-17.334928],[-63.243276,-17.334929],[-63.243277,-17.334929],[-63.243277,-17.33493],[-63.243277,-17.33493],[-63.243277,-17.334931],[-63.243278,-17.334932],[-63.243278,-17.334932],[-63.243278,-17.334933],[-63.243278,-17.334933],[-63.243278,-17.334934],[-63.243279,-17.334935],[-63.243279,-17.334935],[-63.243279,-17.334936],[-63.243279,-17.334936],[-63.243279,-17.334937],[-63.243279,-17.334938],[-63.24328,-17.334938],[-63.24328,-17.334939],[-63.24328,-17.334939],[-63.24328,-17.33494],[-63.24328,-17.334941],[-63.24328,-17.334941],[-63.24328,-17.334942],[-63.24328,-17.334942],[-63.24328,-17.334943],[-63.243281,-17.334944],[-63.243281,-17.334944],[-63.243281,-17.334945],[-63.243281,-17.334946],[-63.243281,-17.334946],[-63.243281,-17.334947],[-63.243281,-17.334947],[-63.243281,-17.334948],[-63.243281,-17.334949],[-63.243281,-17.334949],[-63.243281,-17.33495],[-63.243281,-17.334951],[-63.243281,-17.334951],[-63.243281,-17.334952],[-63.243281,-17.334952],[-63.243281,-17.334953],[-63.243281,-17.334954],[-63.243281,-17.334954],[-63.243281,-17.334955],[-63.243281,-17.334956],[-63.243281,-17.334956],[-63.243281,-17.334957],[-63.243281,-17.334957],[-63.243281,-17.334958],[-63.243281,-17.334959],[-63.243281,-17.334959],[-63.243281,-17.33496],[-63.243281,-17.33496],[-63.24328,-17.334961],[-63.24328,-17.334962],[-63.24328,-17.334962],[-63.24328,-17.334963],[-63.24328,-17.334964],[-63.24328,-17.334964],[-63.24328,-17.334965],[-63.24328,-17.334965],[-63.243279,-17.334966],[-63.243279,-17.334967],[-63.243279,-17.334967],[-63.243279,-17.334968],[-63.243279,-17.334968],[-63.243279,-17.334969],[-63.243279,-17.33497],[-63.243278,-17.33497],[-63.243278,-17.334971],[-63.243278,-17.334971],[-63.243278,-17.334972],[-63.243278,-17.334973],[-63.243277,-17.334973],[-63.243277,-17.334974],[-63.243277,-17.334974],[-63.243277,-17.334975],[-63.243276,-17.334975],[-63.243276,-17.334976],[-63.243276,-17.334977],[-63.243276,-17.334977],[-63.243275,-17.334978],[-63.243275,-17.334978],[-63.243275,-17.334979],[-63.243275,-17.334979],[-63.243274,-17.33498],[-63.243274,-17.334981],[-63.243274,-17.334981],[-63.243273,-17.334982],[-63.243273,-17.334982],[-63.243273,-17.334983],[-63.243272,-17.334983],[-63.243272,-17.334984],[-63.243272,-17.334984],[-63.243272,-17.334985],[-63.243271,-17.334985],[-63.243271,-17.334986],[-63.24327,-17.334987],[-63.24327,-17.334987],[-63.24327,-17.334988],[-63.243269,-17.334988],[-63.243269,-17.334989],[-63.243269,-17.334989],[-63.243268,-17.33499],[-63.243268,-17.33499],[-63.243267,-17.334991],[-63.243267,-17.334991],[-63.243267,-17.334992],[-63.243266,-17.334992],[-63.243266,-17.334993],[-63.243265,-17.334993],[-63.243265,-17.334993],[-63.243265,-17.334994],[-63.243264,-17.334994],[-63.243264,-17.334995],[-63.243263,-17.334995],[-63.243263,-17.334996],[-63.243262,-17.334996],[-63.243262,-17.334997],[-63.243261,-17.334997]]]},"properties":{"description":"LOTE","styleUrl":"#area1","fill-opacity":0,"fill":"#000000","stroke-opacity":1,"stroke":"#000000","stroke-width":1}},{"type":"Feature","geometry":{"type":"Polygon","coordinates":[[[-63.242413,-17.334138],[-63.242412,-17.334138],[-63.242412,-17.334139],[-63.242412,-17.334139],[-63.242411,-17.33414],[-63.242411,-17.33414],[-63.242411,-17.334141],[-63.24241,-17.334141],[-63.24241,-17.334142],[-63.24241,-17.334142],[-63.242409,-17.334142],[-63.242409,-17.334143],[-63.242409,-17.334143],[-63.242408,-17.334144],[-63.242408,-17.334144],[-63.242407,-17.334144],[-63.242407,-17.334145],[-63.242407,-17.334145],[-63.242406,-17.334146],[-63.242406,-17.334146],[-63.242405,-17.334147],[-63.242405,-17.334147],[-63.242405,-17.334147],[-63.242404,-17.334148],[-63.242404,-17.334148],[-63.242403,-17.334148],[-63.242403,-17.334149],[-63.242403,-17.334149],[-63.242402,-17.33415],[-63.242402,-17.33415],[-63.242401,-17.33415],[-63.242401,-17.334151],[-63.2424,-17.334151],[-63.2424,-17.334151],[-63.2424,-17.334152],[-63.242399,-17.334152],[-63.242399,-17.334152],[-63.242398,-17.334153],[-63.242398,-17.334153],[-63.242397,-17.334153],[-63.242397,-17.334154],[-63.242396,-17.334154],[-63.242396,-17.334154],[-63.242395,-17.334155],[-63.242395,-17.334155],[-63.242394,-17.334155],[-63.242394,-17.334156],[-63.242393,-17.334156],[-63.242393,-17.334156],[-63.242393,-17.334156],[-63.242392,-17.334157],[-63.242392,-17.334157],[-63.242391,-17.334157],[-63.242391,-17.334158],[-63.24239,-17.334158],[-63.24239,-17.334158],[-63.242389,-17.334158],[-63.242389,-17.334159],[-63.242388,-17.334159],[-63.242387,-17.334159],[-63.242387,-17.334159],[-63.242386,-17.33416],[-63.242386,-17.33416],[-63.242385,-17.33416],[-63.242385,-17.33416],[-63.242384,-17.334161],[-63.242384,-17.334161],[-63.242383,-17.334161],[-63.242383,-17.334161],[-63.242382,-17.334161],[-63.242382,-17.334162],[-63.242381,-17.334162],[-63.242381,-17.334162],[-63.24238,-17.334162],[-63.24238,-17.334162],[-63.242379,-17.334163],[-63.242378,-17.334163],[-63.242378,-17.334163],[-63.242377,-17.334163],[-63.242377,-17.334163],[-63.242376,-17.334163],[-63.242376,-17.334163],[-63.242375,-17.334164],[-63.242375,-17.334164],[-63.242374,-17.334164],[-63.242373,-17.334164],[-63.242373,-17.334164],[-63.242372,-17.334164],[-63.242372,-17.334164],[-63.242371,-17.334165],[-63.242371,-17.334165],[-63.24237,-17.334165],[-63.24237,-17.334165],[-63.242369,-17.334165],[-63.242368,-17.334165],[-63.242368,-17.334165],[-63.242367,-17.334165],[-63.242367,-17.334165],[-63.242366,-17.334165],[-63.242366,-17.334165],[-63.242365,-17.334165],[-63.242364,-17.334165],[-63.242364,-17.334166],[-63.242363,-17.334166],[-63.242363,-17.334166],[-63.242362,-17.334166],[-63.242362,-17.334166],[-63.242361,-17.334166],[-63.24236,-17.334166],[-63.24236,-17.334166],[-63.242359,-17.334166],[-63.242359,-17.334166],[-63.242358,-17.334166],[-63.242358,-17.334166],[-63.242357,-17.334166],[-63.242356,-17.334166],[-63.242356,-17.334166],[-63.242355,-17.334166],[-63.242355,-17.334166],[-63.242354,-17.334166],[-63.242354,-17.334166],[-63.242353,-17.334166],[-63.242352,-17.334166],[-63.242352,-17.334165],[-63.242351,-17.334165],[-63.242351,-17.334165],[-63.24235,-17.334165],[-63.24235,-17.334165],[-63.242349,-17.334165],[-63.242348,-17.334165],[-63.242348,-17.334165],[-63.242347,-17.334165],[-63.242347,-17.334165],[-63.242346,-17.334165],[-63.242346,-17.334165],[-63.242345,-17.334165],[-63.242344,-17.334164],[-63.242344,-17.334164],[-63.242343,-17.334164],[-63.242343,-17.334164],[-63.242342,-17.334164],[-63.242342,-17.334164],[-63.242341,-17.334164],[-63.242341,-17.334163],[-63.24234,-17.334163],[-63.242339,-17.334163],[-63.242339,-17.334163],[-63.242338,-17.334163],[-63.242338,-17.334163],[-63.242337,-17.334163],[-63.242337,-17.334162],[-63.242336,-17.334162],[-63.242336,-17.334162],[-63.242335,-17.334162],[-63.242335,-17.334162],[-63.242334,-17.334161],[-63.242333,-17.334161],[-63.242333,-17.334161],[-63.242332,-17.334161],[-63.242332,-17.334161],[-63.242331,-17.33416],[-63.242331,-17.33416],[-63.24233,-17.33416],[-63.24233,-17.33416],[-63.242329,-17.334159],[-63.242329,-17.334159],[-63.242328,-17.334159],[-63.242328,-17.334159],[-63.242327,-17.334158],[-63.242327,-17.334158],[-63.242326,-17.334158],[-63.242326,-17.334158],[-63.242325,-17.334157],[-63.242325,-17.334157],[-63.242324,-17.334157],[-63.242324,-17.334156],[-63.242323,-17.334156],[-63.242323,-17.334156],[-63.242322,-17.334156],[-63.242322,-17.334155],[-63.242321,-17.334155],[-63.242301,-17.334142],[-63.242535,-17.333608],[-63.242736,-17.333679],[-63.242413,-17.334138]]]},"properties":{"description":"LOTE","styleUrl":"#area1","fill-opacity":0,"fill":"#000000","stroke-opacity":1,"stroke":"#000000","stroke-width":1}},{"type":"Feature","geometry":{"type":"Polygon","coordinates":[[[-63.24212,-17.334553],[-63.242252,-17.334252],[-63.242253,-17.334252],[-63.242253,-17.334253],[-63.242254,-17.334253],[-63.242254,-17.334253],[-63.242255,-17.334254],[-63.242255,-17.334254],[-63.242256,-17.334254],[-63.242256,-17.334255],[-63.242257,-17.334255],[-63.242257,-17.334255],[-63.242257,-17.334256],[-63.242258,-17.334256],[-63.242258,-17.334256],[-63.242259,-17.334257],[-63.242259,-17.334257],[-63.24226,-17.334257],[-63.24226,-17.334258],[-63.242261,-17.334258],[-63.242261,-17.334259],[-63.242261,-17.334259],[-63.242262,-17.334259],[-63.242262,-17.33426],[-63.242263,-17.33426],[-63.242263,-17.334261],[-63.242263,-17.334261],[-63.242264,-17.334261],[-63.242264,-17.334262],[-63.242265,-17.334262],[-63.242265,-17.334263],[-63.242265,-17.334263],[-63.242266,-17.334263],[-63.242266,-17.334264],[-63.242266,-17.334264],[-63.242267,-17.334265],[-63.242267,-17.334265],[-63.242268,-17.334266],[-63.242268,-17.334266],[-63.242268,-17.334266],[-63.242269,-17.334267],[-63.242269,-17.334267],[-63.242269,-17.334268],[-63.24227,-17.334268],[-63.24227,-17.334269],[-63.24227,-17.334269],[-63.242271,-17.33427],[-63.242271,-17.33427],[-63.242271,-17.334271],[-63.242272,-17.334271],[-63.242272,-17.334271],[-63.242272,-17.334272],[-63.242272,-17.334272],[-63.242273,-17.334273],[-63.242273,-17.334273],[-63.242273,-17.334274],[-63.242274,-17.334274],[-63.242274,-17.334275],[-63.242274,-17.334275],[-63.242274,-17.334276],[-63.242275,-17.334276],[-63.242275,-17.334277],[-63.242275,-17.334277],[-63.242275,-17.334278],[-63.242276,-17.334278],[-63.242276,-17.334279],[-63.242276,-17.334279],[-63.242276,-17.33428],[-63.242277,-17.33428],[-63.242277,-17.334281],[-63.242277,-17.334281],[-63.242277,-17.334282],[-63.242277,-17.334282],[-63.242278,-17.334283],[-63.242278,-17.334283],[-63.242278,-17.334284],[-63.242278,-17.334284],[-63.242278,-17.334285],[-63.242279,-17.334286],[-63.242279,-17.334286],[-63.242279,-17.334287],[-63.242279,-17.334287],[-63.242279,-17.334288],[-63.242279,-17.334288],[-63.24228,-17.334289],[-63.24228,-17.334289],[-63.24228,-17.33429],[-63.24228,-17.33429],[-63.24228,-17.334291],[-63.24228,-17.334291],[-63.24228,-17.334292],[-63.24228,-17.334292],[-63.242281,-17.334293],[-63.242281,-17.334294],[-63.242281,-17.334294],[-63.242281,-17.334295],[-63.242281,-17.334295],[-63.242281,-17.334296],[-63.242281,-17.334296],[-63.242281,-17.334297],[-63.242281,-17.334297],[-63.242281,-17.334298],[-63.242281,-17.334299],[-63.242281,-17.334299],[-63.242281,-17.3343],[-63.242282,-17.3343],[-63.242282,-17.334301],[-63.242282,-17.334301],[-63.242282,-17.334302],[-63.242282,-17.334302],[-63.242282,-17.334303],[-63.242282,-17.334304],[-63.242282,-17.334304],[-63.242282,-17.334305],[-63.242282,-17.334305],[-63.242282,-17.334306],[-63.242282,-17.334306],[-63.242282,-17.334307],[-63.242282,-17.334307],[-63.242282,-17.334308],[-63.242282,-17.334308],[-63.242282,-17.334309],[-63.242282,-17.33431],[-63.242281,-17.33431],[-63.242281,-17.334311],[-63.242281,-17.334311],[-63.242281,-17.334312],[-63.242281,-17.334312],[-63.242281,-17.334313],[-63.242281,-17.334313],[-63.242281,-17.334314],[-63.242281,-17.334315],[-63.242281,-17.334315],[-63.242281,-17.334316],[-63.242281,-17.334316],[-63.242281,-17.334317],[-63.24228,-17.334317],[-63.24228,-17.334318],[-63.24228,-17.334318],[-63.24228,-17.334319],[-63.24228,-17.334319],[-63.24228,-17.33432],[-63.24228,-17.334321],[-63.242279,-17.334321],[-63.242279,-17.334322],[-63.242279,-17.334322],[-63.242279,-17.334323],[-63.242279,-17.334323],[-63.242279,-17.334324],[-63.242278,-17.334324],[-63.242278,-17.334325],[-63.242278,-17.334325],[-63.242278,-17.334326],[-63.242278,-17.334326],[-63.242278,-17.334327],[-63.242277,-17.334327],[-63.242277,-17.334328],[-63.242277,-17.334328],[-63.242277,-17.334329],[-63.242276,-17.334329],[-63.242276,-17.33433],[-63.242276,-17.33433],[-63.242276,-17.334331],[-63.242276,-17.334331],[-63.242275,-17.334332],[-63.242275,-17.334332],[-63.242275,-17.334333],[-63.242275,-17.334333],[-63.242274,-17.334334],[-63.242274,-17.334334],[-63.242274,-17.334335],[-63.242273,-17.334335],[-63.242273,-17.334336],[-63.242273,-17.334336],[-63.242273,-17.334337],[-63.242272,-17.334337],[-63.242272,-17.334338],[-63.242272,-17.334338],[-63.242271,-17.334339],[-63.242271,-17.334339],[-63.242271,-17.33434],[-63.24227,-17.33434],[-63.24212,-17.334553]]]},"properties":{"description":"LOTE","styleUrl":"#area1","fill-opacity":0,"fill":"#000000","stroke-opacity":1,"stroke":"#000000","stroke-width":1}},{"type":"Feature","geometry":{"type":"LineString","coordinates":[[-63.243398,-17.333916],[-63.242982,-17.334507]]},"properties":{"description":"MZ","styleUrl":"#line1","stroke-opacity":1,"stroke":"#000000","stroke-width":1}},{"type":"Feature","geometry":{"type":"LineString","coordinates":[[-63.243517,-17.333958],[-63.243084,-17.334572]]},"properties":{"description":"MZ","styleUrl":"#line1","stroke-opacity":1,"stroke":"#000000","stroke-width":1}},{"type":"Feature","geometry":{"type":"LineString","coordinates":[[-63.242352,-17.335767],[-63.24177,-17.335389]]},"properties":{"description":"MZ","styleUrl":"#line1","stroke-opacity":1,"stroke":"#000000","stroke-width":1}},{"type":"Feature","geometry":{"type":"LineString","coordinates":[[-63.242079,-17.334935],[-63.242753,-17.335372]]},"properties":{"description":"MZ","styleUrl":"#line1","stroke-opacity":1,"stroke":"#000000","stroke-width":1}},{"type":"Feature","geometry":{"type":"LineString","coordinates":[[-63.242147,-17.334838],[-63.242864,-17.335302]]},"properties":{"description":"MZ","styleUrl":"#line1","stroke-opacity":1,"stroke":"#000000","stroke-width":1}},{"type":"Feature","geometry":{"type":"LineString","coordinates":[[-63.242463,-17.334389],[-63.243252,-17.3349]]},"properties":{"description":"MZ","styleUrl":"#line1","stroke-opacity":1,"stroke":"#000000","stroke-width":1}},{"type":"Feature","geometry":{"type":"LineString","coordinates":[[-63.240711,-17.337317],[-63.242338,-17.336083]]},"properties":{"description":"MZ","styleUrl":"#line1","stroke-opacity":1,"stroke":"#000000","stroke-width":1}},{"type":"Feature","geometry":{"type":"LineString","coordinates":[[-63.243958,-17.334474],[-63.243916,-17.334521]]},"properties":{"description":"MZ","styleUrl":"#line1","stroke-opacity":1,"stroke":"#000000","stroke-width":1}},{"type":"Feature","geometry":{"type":"LineString","coordinates":[[-63.242762,-17.335469],[-63.242459,-17.335757]]},"properties":{"description":"MZ","styleUrl":"#line1","stroke-opacity":1,"stroke":"#000000","stroke-width":1}},{"type":"Feature","geometry":{"type":"LineString","coordinates":[[-63.243846,-17.33439],[-63.24381,-17.334431]]},"properties":{"description":"MZ","styleUrl":"#line1","stroke-opacity":1,"stroke":"#000000","stroke-width":1}},{"type":"Feature","geometry":{"type":"LineString","coordinates":[[-63.24381,-17.334431],[-63.243444,-17.334817]]},"properties":{"description":"MZ","styleUrl":"#line1","stroke-opacity":1,"stroke":"#000000","stroke-width":1}},{"type":"Feature","geometry":{"type":"LineString","coordinates":[[-63.241058,-17.33688],[-63.24061,-17.337221]]},"properties":{"description":"MZ","styleUrl":"#line1","stroke-opacity":1,"stroke":"#000000","stroke-width":1}},{"type":"Feature","geometry":{"type":"LineString","coordinates":[[-63.242753,-17.335372],[-63.242754,-17.335373],[-63.242756,-17.335375],[-63.242758,-17.335376],[-63.24276,-17.335377],[-63.242762,-17.335379],[-63.242763,-17.33538],[-63.242765,-17.335382],[-63.242766,-17.335384],[-63.242768,-17.335385],[-63.242769,-17.335387],[-63.24277,-17.335389],[-63.242772,-17.335391],[-63.242773,-17.335393],[-63.242774,-17.335395],[-63.242775,-17.335397],[-63.242776,-17.335399],[-63.242777,-17.335401],[-63.242778,-17.335403],[-63.242778,-17.335405],[-63.242779,-17.335407],[-63.24278,-17.335409],[-63.24278,-17.335411],[-63.242781,-17.335413],[-63.242781,-17.335416],[-63.242781,-17.335418],[-63.242781,-17.33542],[-63.242782,-17.335422],[-63.242782,-17.335424],[-63.242782,-17.335427],[-63.242781,-17.335429],[-63.242781,-17.335431],[-63.242781,-17.335433],[-63.242781,-17.335435],[-63.24278,-17.335438],[-63.24278,-17.33544],[-63.242779,-17.335442],[-63.242778,-17.335444],[-63.242778,-17.335446],[-63.242777,-17.335448],[-63.242776,-17.33545],[-63.242775,-17.335452],[-63.242774,-17.335454],[-63.242773,-17.335456],[-63.242772,-17.335458],[-63.24277,-17.33546],[-63.242769,-17.335462],[-63.242768,-17.335463],[-63.242766,-17.335465],[-63.242765,-17.335467],[-63.242763,-17.335468],[-63.242762,-17.335469]]},"properties":{"description":"MZ","styleUrl":"#line1","stroke-opacity":1,"stroke":"#000000","stroke-width":1}},{"type":"Feature","geometry":{"type":"LineString","coordinates":[[-63.242649,-17.335577],[-63.241892,-17.335087]]},"properties":{"description":"LOTE","styleUrl":"#line1","stroke-opacity":1,"stroke":"#000000","stroke-width":1}},{"type":"Feature","geometry":{"type":"LineString","coordinates":[[-63.242312,-17.335359],[-63.242128,-17.335621]]},"properties":{"description":"LOTE","styleUrl":"#line1","stroke-opacity":1,"stroke":"#000000","stroke-width":1}},{"type":"Feature","geometry":{"type":"LineString","coordinates":[[-63.242195,-17.335283],[-63.242011,-17.335546]]},"properties":{"description":"LOTE","styleUrl":"#line1","stroke-opacity":1,"stroke":"#000000","stroke-width":1}},{"type":"Feature","geometry":{"type":"LineString","coordinates":[[-63.241894,-17.33547],[-63.242078,-17.335207]]},"properties":{"description":"LOTE","styleUrl":"#line1","stroke-opacity":1,"stroke":"#000000","stroke-width":1}},{"type":"Feature","geometry":{"type":"LineString","coordinates":[[-63.241981,-17.336181],[-63.241361,-17.335779]]},"properties":{"description":"LOTE","styleUrl":"#line1","stroke-opacity":1,"stroke":"#000000","stroke-width":1}},{"type":"Feature","geometry":{"type":"LineString","coordinates":[[-63.242049,-17.335843],[-63.241864,-17.336105]]},"properties":{"description":"LOTE","styleUrl":"#line1","stroke-opacity":1,"stroke":"#000000","stroke-width":1}},{"type":"Feature","geometry":{"type":"LineString","coordinates":[[-63.241932,-17.335767],[-63.241747,-17.336029]]},"properties":{"description":"LOTE","styleUrl":"#line1","stroke-opacity":1,"stroke":"#000000","stroke-width":1}},{"type":"Feature","geometry":{"type":"LineString","coordinates":[[-63.24163,-17.335953],[-63.241815,-17.335691]]},"properties":{"description":"LOTE","styleUrl":"#line1","stroke-opacity":1,"stroke":"#000000","stroke-width":1}},{"type":"Feature","geometry":{"type":"LineString","coordinates":[[-63.241697,-17.335615],[-63.241513,-17.335878]]},"properties":{"description":"LOTE","styleUrl":"#line1","stroke-opacity":1,"stroke":"#000000","stroke-width":1}},{"type":"Feature","geometry":{"type":"LineString","coordinates":[[-63.241662,-17.335974],[-63.240974,-17.336585]]},"properties":{"description":"LOTE","styleUrl":"#line1","stroke-opacity":1,"stroke":"#000000","stroke-width":1}},{"type":"Feature","geometry":{"type":"LineString","coordinates":[[-63.241888,-17.336251],[-63.24128,-17.335857]]},"properties":{"description":"LOTE","styleUrl":"#line1","stroke-opacity":1,"stroke":"#000000","stroke-width":1}},{"type":"Feature","geometry":{"type":"LineString","coordinates":[[-63.241795,-17.336322],[-63.241199,-17.335936]]},"properties":{"description":"LOTE","styleUrl":"#line1","stroke-opacity":1,"stroke":"#000000","stroke-width":1}},{"type":"Feature","geometry":{"type":"LineString","coordinates":[[-63.241702,-17.336392],[-63.241117,-17.336013]]},"properties":{"description":"LOTE","styleUrl":"#line1","stroke-opacity":1,"stroke":"#000000","stroke-width":1}},{"type":"Feature","geometry":{"type":"LineString","coordinates":[[-63.241609,-17.336463],[-63.241033,-17.33609]]},"properties":{"description":"LOTE","styleUrl":"#line1","stroke-opacity":1,"stroke":"#000000","stroke-width":1}},{"type":"Feature","geometry":{"type":"LineString","coordinates":[[-63.241516,-17.336534],[-63.240948,-17.336166]]},"properties":{"description":"LOTE","styleUrl":"#line1","stroke-opacity":1,"stroke":"#000000","stroke-width":1}},{"type":"Feature","geometry":{"type":"LineString","coordinates":[[-63.241423,-17.336604],[-63.241151,-17.336428]]},"properties":{"description":"LOTE","styleUrl":"#line1","stroke-opacity":1,"stroke":"#000000","stroke-width":1}},{"type":"Feature","geometry":{"type":"LineString","coordinates":[[-63.24133,-17.336675],[-63.241066,-17.336504]]},"properties":{"description":"LOTE","styleUrl":"#line1","stroke-opacity":1,"stroke":"#000000","stroke-width":1}},{"type":"Feature","geometry":{"type":"LineString","coordinates":[[-63.24061,-17.337221],[-63.240218,-17.336848]]},"properties":{"description":"LOTE","styleUrl":"#line1","stroke-opacity":1,"stroke":"#000000","stroke-width":1}},{"type":"Feature","geometry":{"type":"LineString","coordinates":[[-63.242654,-17.334512],[-63.242338,-17.334962]]},"properties":{"description":"LOTE","styleUrl":"#line1","stroke-opacity":1,"stroke":"#000000","stroke-width":1}},{"type":"Feature","geometry":{"type":"LineString","coordinates":[[-63.242748,-17.334573],[-63.242432,-17.335022]]},"properties":{"description":"LOTE","styleUrl":"#line1","stroke-opacity":1,"stroke":"#000000","stroke-width":1}},{"type":"Feature","geometry":{"type":"LineString","coordinates":[[-63.242841,-17.334634],[-63.242525,-17.335083]]},"properties":{"description":"LOTE","styleUrl":"#line1","stroke-opacity":1,"stroke":"#000000","stroke-width":1}},{"type":"Feature","geometry":{"type":"LineString","coordinates":[[-63.242935,-17.334694],[-63.242619,-17.335144]]},"properties":{"description":"LOTE","styleUrl":"#line1","stroke-opacity":1,"stroke":"#000000","stroke-width":1}},{"type":"Feature","geometry":{"type":"LineString","coordinates":[[-63.243029,-17.334755],[-63.242712,-17.335204]]},"properties":{"description":"LOTE","styleUrl":"#line1","stroke-opacity":1,"stroke":"#000000","stroke-width":1}},{"type":"Feature","geometry":{"type":"LineString","coordinates":[[-63.243202,-17.335053],[-63.242939,-17.334882]]},"properties":{"description":"LOTE","styleUrl":"#line1","stroke-opacity":1,"stroke":"#000000","stroke-width":1}},{"type":"Feature","geometry":{"type":"LineString","coordinates":[[-63.243025,-17.335221],[-63.242802,-17.335077]]},"properties":{"description":"LOTE","styleUrl":"#line1","stroke-opacity":1,"stroke":"#000000","stroke-width":1}},{"type":"Feature","geometry":{"type":"LineString","coordinates":[[-63.243645,-17.334241],[-63.243356,-17.334593]]},"properties":{"description":"LOTE","styleUrl":"#line1","stroke-opacity":1,"stroke":"#000000","stroke-width":1}},{"type":"Feature","geometry":{"type":"LineString","coordinates":[[-63.243348,-17.334198],[-63.243771,-17.334472]]},"properties":{"description":"LOTE","styleUrl":"#line1","stroke-opacity":1,"stroke":"#000000","stroke-width":1}},{"type":"Feature","geometry":{"type":"LineString","coordinates":[[-63.243695,-17.334552],[-63.243284,-17.334288]]},"properties":{"description":"LOTE","styleUrl":"#line1","stroke-opacity":1,"stroke":"#000000","stroke-width":1}},{"type":"Feature","geometry":{"type":"LineString","coordinates":[[-63.243221,-17.334377],[-63.243619,-17.334632]]},"properties":{"description":"LOTE","styleUrl":"#line1","stroke-opacity":1,"stroke":"#000000","stroke-width":1}},{"type":"Feature","geometry":{"type":"LineString","coordinates":[[-63.243543,-17.334712],[-63.243158,-17.334467]]},"properties":{"description":"LOTE","styleUrl":"#line1","stroke-opacity":1,"stroke":"#000000","stroke-width":1}},{"type":"Feature","geometry":{"type":"LineString","coordinates":[[-63.243407,-17.334626],[-63.243283,-17.334778]]},"properties":{"description":"LOTE","styleUrl":"#line1","stroke-opacity":1,"stroke":"#000000","stroke-width":1}},{"type":"Feature","geometry":{"type":"LineString","coordinates":[[-63.243181,-17.334712],[-63.243305,-17.334561]]},"properties":{"description":"LOTE","styleUrl":"#line1","stroke-opacity":1,"stroke":"#000000","stroke-width":1}},{"type":"Feature","geometry":{"type":"LineString","coordinates":[[-63.242556,-17.334144],[-63.243025,-17.334447]]},"properties":{"description":"LOTE","styleUrl":"#line1","stroke-opacity":1,"stroke":"#000000","stroke-width":1}},{"type":"Feature","geometry":{"type":"LineString","coordinates":[[-63.24262,-17.334054],[-63.243088,-17.334357]]},"properties":{"description":"LOTE","styleUrl":"#line1","stroke-opacity":1,"stroke":"#000000","stroke-width":1}},{"type":"Feature","geometry":{"type":"LineString","coordinates":[[-63.242683,-17.333964],[-63.243151,-17.334267]]},"properties":{"description":"LOTE","styleUrl":"#line1","stroke-opacity":1,"stroke":"#000000","stroke-width":1}},{"type":"Feature","geometry":{"type":"LineString","coordinates":[[-63.242746,-17.333874],[-63.243214,-17.334177]]},"properties":{"description":"LOTE","styleUrl":"#line1","stroke-opacity":1,"stroke":"#000000","stroke-width":1}},{"type":"Feature","geometry":{"type":"LineString","coordinates":[[-63.242809,-17.333784],[-63.243043,-17.333936]]},"properties":{"description":"LOTE","styleUrl":"#line1","stroke-opacity":1,"stroke":"#000000","stroke-width":1}},{"type":"Feature","geometry":{"type":"LineString","coordinates":[[-63.243126,-17.333818],[-63.242711,-17.334408]]},"properties":{"description":"LOTE","styleUrl":"#line1","stroke-opacity":1,"stroke":"#000000","stroke-width":1}},{"type":"Feature","geometry":{"type":"LineString","coordinates":[[-63.242482,-17.333729],[-63.242632,-17.333826]]},"properties":{"description":"LOTE","styleUrl":"#line1","stroke-opacity":1,"stroke":"#000000","stroke-width":1}},{"type":"Feature","geometry":{"type":"LineString","coordinates":[[-63.242407,-17.333899],[-63.242527,-17.333976]]},"properties":{"description":"LOTE","styleUrl":"#line1","stroke-opacity":1,"stroke":"#000000","stroke-width":1}},{"type":"Feature","geometry":{"type":"LineString","coordinates":[[-63.242459,-17.335757],[-63.242457,-17.335759],[-63.242455,-17.335761],[-63.242452,-17.335763],[-63.24245,-17.335764],[-63.242448,-17.335766],[-63.242445,-17.335768],[-63.242443,-17.335769],[-63.24244,-17.335771],[-63.242437,-17.335772],[-63.242435,-17.335773],[-63.242432,-17.335774],[-63.242429,-17.335775],[-63.242426,-17.335776],[-63.242424,-17.335777],[-63.242421,-17.335778],[-63.242418,-17.335779],[-63.242415,-17.335779],[-63.242412,-17.33578],[-63.242409,-17.33578],[-63.242406,-17.33578],[-63.242403,-17.33578],[-63.2424,-17.335781],[-63.242397,-17.335781],[-63.242394,-17.33578],[-63.242391,-17.33578],[-63.242389,-17.33578],[-63.242386,-17.335779],[-63.242383,-17.335779],[-63.24238,-17.335778],[-63.242377,-17.335778],[-63.242374,-17.335777],[-63.242371,-17.335776],[-63.242369,-17.335775],[-63.242366,-17.335774],[-63.242363,-17.335773],[-63.24236,-17.335771],[-63.242358,-17.33577],[-63.242355,-17.335769],[-63.242353,-17.335767],[-63.242352,-17.335767]]},"properties":{"description":"MZ","styleUrl":"#line1","stroke-opacity":1,"stroke":"#000000","stroke-width":1}},{"type":"Feature","geometry":{"type":"LineString","coordinates":[[-63.242429,-17.335435],[-63.242245,-17.335697]]},"properties":{"description":"LOTE","styleUrl":"#line1","stroke-opacity":1,"stroke":"#000000","stroke-width":1}},{"type":"Feature","geometry":{"type":"LineString","coordinates":[[-63.242168,-17.334993],[-63.242036,-17.33518]]},"properties":{"description":"LOTE","styleUrl":"#line1","stroke-opacity":1,"stroke":"#000000","stroke-width":1}},{"type":"Feature","geometry":{"type":"LineString","coordinates":[[-63.242636,-17.335297],[-63.242504,-17.335484]]},"properties":{"description":"LOTE","styleUrl":"#line1","stroke-opacity":1,"stroke":"#000000","stroke-width":1}},{"type":"Feature","geometry":{"type":"LineString","coordinates":[[-63.242519,-17.335221],[-63.242387,-17.335408]]},"properties":{"description":"LOTE","styleUrl":"#line1","stroke-opacity":1,"stroke":"#000000","stroke-width":1}},{"type":"Feature","geometry":{"type":"LineString","coordinates":[[-63.242402,-17.335145],[-63.24227,-17.335332]]},"properties":{"description":"LOTE","styleUrl":"#line1","stroke-opacity":1,"stroke":"#000000","stroke-width":1}},{"type":"Feature","geometry":{"type":"LineString","coordinates":[[-63.242285,-17.335069],[-63.242153,-17.335256]]},"properties":{"description":"LOTE","styleUrl":"#line1","stroke-opacity":1,"stroke":"#000000","stroke-width":1}},{"type":"Feature","geometry":{"type":"LineString","coordinates":[[-63.242854,-17.333721],[-63.242514,-17.334204]]},"properties":{"description":"MZ","styleUrl":"#line1","stroke-opacity":1,"stroke":"#000000","stroke-width":1}},{"type":"Feature","geometry":{"type":"LineString","coordinates":[[-63.242891,-17.334524],[-63.242532,-17.334291]]},"properties":{"description":"MZ","styleUrl":"#line1","stroke-opacity":1,"stroke":"#000000","stroke-width":1}},{"type":"Feature","geometry":{"type":"LineString","coordinates":[[-63.242982,-17.334507],[-63.242981,-17.334509],[-63.24298,-17.33451],[-63.242978,-17.334512],[-63.242977,-17.334514],[-63.242975,-17.334515],[-63.242973,-17.334517],[-63.242972,-17.334519],[-63.24297,-17.33452],[-63.242968,-17.334521],[-63.242966,-17.334523],[-63.242965,-17.334524],[-63.242963,-17.334525],[-63.242961,-17.334526],[-63.242959,-17.334527],[-63.242957,-17.334528],[-63.242954,-17.334529],[-63.242952,-17.33453],[-63.24295,-17.334531],[-63.242948,-17.334532],[-63.242946,-17.334532],[-63.242944,-17.334533],[-63.242941,-17.334533],[-63.242939,-17.334534],[-63.242937,-17.334534],[-63.242935,-17.334534],[-63.242932,-17.334535],[-63.24293,-17.334535],[-63.242928,-17.334535],[-63.242925,-17.334535],[-63.242923,-17.334535],[-63.242921,-17.334534],[-63.242919,-17.334534],[-63.242916,-17.334534],[-63.242914,-17.334533],[-63.242912,-17.334533],[-63.24291,-17.334532],[-63.242907,-17.334532],[-63.242905,-17.334531],[-63.242903,-17.33453],[-63.242901,-17.334529],[-63.242899,-17.334528],[-63.242897,-17.334527],[-63.242895,-17.334526],[-63.242893,-17.334525],[-63.242891,-17.334524]]},"properties":{"description":"MZ","styleUrl":"#line1","stroke-opacity":1,"stroke":"#000000","stroke-width":1}},{"type":"Feature","geometry":{"type":"LineString","coordinates":[[-63.242532,-17.334291],[-63.24253,-17.33429],[-63.242528,-17.334289],[-63.242526,-17.334287],[-63.242525,-17.334286],[-63.242523,-17.334284],[-63.242521,-17.334283],[-63.24252,-17.334281],[-63.242518,-17.33428],[-63.242517,-17.334278],[-63.242516,-17.334276],[-63.242514,-17.334274],[-63.242513,-17.334273],[-63.242512,-17.334271],[-63.242511,-17.334269],[-63.24251,-17.334267],[-63.242509,-17.334265],[-63.242508,-17.334263],[-63.242507,-17.334261],[-63.242506,-17.334259],[-63.242505,-17.334256],[-63.242505,-17.334254],[-63.242504,-17.334252],[-63.242504,-17.33425],[-63.242504,-17.334248],[-63.242503,-17.334246],[-63.242503,-17.334243],[-63.242503,-17.334241],[-63.242503,-17.334239],[-63.242503,-17.334237],[-63.242503,-17.334235],[-63.242503,-17.334232],[-63.242504,-17.33423],[-63.242504,-17.334228],[-63.242504,-17.334226],[-63.242505,-17.334224],[-63.242505,-17.334222],[-63.242506,-17.334219],[-63.242507,-17.334217],[-63.242508,-17.334215],[-63.242509,-17.334213],[-63.24251,-17.334211],[-63.242511,-17.334209],[-63.242512,-17.334207],[-63.242513,-17.334205],[-63.242514,-17.334204],[-63.242514,-17.334204]]},"properties":{"description":"MZ","styleUrl":"#line1","stroke-opacity":1,"stroke":"#000000","stroke-width":1}},{"type":"Feature","geometry":{"type":"LineString","coordinates":[[-63.243358,-17.334827],[-63.243102,-17.33466]]},"properties":{"description":"MZ","styleUrl":"#line1","stroke-opacity":1,"stroke":"#000000","stroke-width":1}},{"type":"Feature","geometry":{"type":"LineString","coordinates":[[-63.243444,-17.334817],[-63.243442,-17.334818],[-63.243441,-17.33482],[-63.243439,-17.334821],[-63.243437,-17.334823],[-63.243435,-17.334824],[-63.243434,-17.334826],[-63.243432,-17.334827],[-63.24343,-17.334828],[-63.243428,-17.334829],[-63.243426,-17.33483],[-63.243424,-17.334831],[-63.243422,-17.334832],[-63.243419,-17.334833],[-63.243417,-17.334834],[-63.243415,-17.334834],[-63.243413,-17.334835],[-63.243411,-17.334836],[-63.243408,-17.334836],[-63.243406,-17.334837],[-63.243404,-17.334837],[-63.243402,-17.334837],[-63.243399,-17.334837],[-63.243397,-17.334837],[-63.243395,-17.334837],[-63.243392,-17.334837],[-63.24339,-17.334837],[-63.243388,-17.334837],[-63.243386,-17.334837],[-63.243383,-17.334836],[-63.243381,-17.334836],[-63.243379,-17.334835],[-63.243377,-17.334835],[-63.243374,-17.334834],[-63.243372,-17.334834],[-63.24337,-17.334833],[-63.243368,-17.334832],[-63.243366,-17.334831],[-63.243364,-17.33483],[-63.243362,-17.334829],[-63.24336,-17.334828],[-63.243358,-17.334827]]},"properties":{"description":"MZ","styleUrl":"#line1","stroke-opacity":1,"stroke":"#000000","stroke-width":1}},{"type":"Feature","geometry":{"type":"LineString","coordinates":[[-63.243102,-17.33466],[-63.2431,-17.334659],[-63.243098,-17.334658],[-63.243096,-17.334656],[-63.243094,-17.334655],[-63.243093,-17.334653],[-63.243091,-17.334652],[-63.243089,-17.33465],[-63.243088,-17.334649],[-63.243087,-17.334647],[-63.243085,-17.334645],[-63.243084,-17.334643],[-63.243083,-17.334641],[-63.243081,-17.33464],[-63.24308,-17.334638],[-63.243079,-17.334636],[-63.243078,-17.334634],[-63.243077,-17.334632],[-63.243077,-17.33463],[-63.243076,-17.334627],[-63.243075,-17.334625],[-63.243075,-17.334623],[-63.243074,-17.334621],[-63.243074,-17.334619],[-63.243073,-17.334617],[-63.243073,-17.334615],[-63.243073,-17.334612],[-63.243073,-17.33461],[-63.243073,-17.334608],[-63.243073,-17.334606],[-63.243073,-17.334604],[-63.243073,-17.334601],[-63.243073,-17.334599],[-63.243074,-17.334597],[-63.243074,-17.334595],[-63.243075,-17.334593],[-63.243075,-17.33459],[-63.243076,-17.334588],[-63.243077,-17.334586],[-63.243077,-17.334584],[-63.243078,-17.334582],[-63.243079,-17.33458],[-63.24308,-17.334578],[-63.243081,-17.334576],[-63.243083,-17.334574],[-63.243084,-17.334573],[-63.243084,-17.334572]]},"properties":{"description":"MZ","styleUrl":"#line1","stroke-opacity":1,"stroke":"#000000","stroke-width":1}},{"type":"Feature","geometry":{"type":"LineString","coordinates":[[-63.242736,-17.333679],[-63.242413,-17.334138]]},"properties":{"description":"MZ","styleUrl":"#line1","stroke-opacity":1,"stroke":"#000000","stroke-width":1}},{"type":"Feature","geometry":{"type":"LineString","coordinates":[[-63.24227,-17.33434],[-63.24212,-17.334553]]},"properties":{"description":"MZ","styleUrl":"#line1","stroke-opacity":1,"stroke":"#000000","stroke-width":1}},{"type":"Feature","geometry":{"type":"LineString","coordinates":[[-63.242372,-17.334406],[-63.242129,-17.33475]]},"properties":{"description":"MZ","styleUrl":"#line1","stroke-opacity":1,"stroke":"#000000","stroke-width":1}},{"type":"Feature","geometry":{"type":"LineString","coordinates":[[-63.242372,-17.334406],[-63.242373,-17.334404],[-63.242375,-17.334402],[-63.242376,-17.3344],[-63.242378,-17.334399],[-63.242379,-17.334397],[-63.242381,-17.334396],[-63.242382,-17.334394],[-63.242384,-17.334393],[-63.242386,-17.334391],[-63.242388,-17.33439],[-63.24239,-17.334389],[-63.242392,-17.334387],[-63.242394,-17.334386],[-63.242396,-17.334385],[-63.242398,-17.334384],[-63.2424,-17.334383],[-63.242402,-17.334382],[-63.242404,-17.334382],[-63.242406,-17.334381],[-63.242408,-17.33438],[-63.242411,-17.33438],[-63.242413,-17.334379],[-63.242415,-17.334379],[-63.242417,-17.334378],[-63.24242,-17.334378],[-63.242422,-17.334378],[-63.242424,-17.334378],[-63.242427,-17.334378],[-63.242429,-17.334378],[-63.242431,-17.334378],[-63.242433,-17.334378],[-63.242436,-17.334379],[-63.242438,-17.334379],[-63.24244,-17.334379],[-63.242443,-17.33438],[-63.242445,-17.33438],[-63.242447,-17.334381],[-63.242449,-17.334382],[-63.242451,-17.334383],[-63.242453,-17.334383],[-63.242455,-17.334384],[-63.242457,-17.334385],[-63.24246,-17.334386],[-63.242461,-17.334388],[-63.242463,-17.334389]]},"properties":{"description":"MZ","styleUrl":"#line1","stroke-opacity":1,"stroke":"#000000","stroke-width":1}},{"type":"Feature","geometry":{"type":"LineString","coordinates":[[-63.242147,-17.334838],[-63.242145,-17.334837],[-63.242143,-17.334836],[-63.242142,-17.334834],[-63.24214,-17.334833],[-63.242138,-17.334831],[-63.242137,-17.33483],[-63.242135,-17.334828],[-63.242134,-17.334826],[-63.242132,-17.334825],[-63.242131,-17.334823],[-63.242129,-17.334821],[-63.242128,-17.334819],[-63.242127,-17.334817],[-63.242126,-17.334815],[-63.242125,-17.334813],[-63.242124,-17.334811],[-63.242123,-17.334809],[-63.242122,-17.334807],[-63.242121,-17.334805],[-63.242121,-17.334803],[-63.24212,-17.334801],[-63.24212,-17.334799],[-63.242119,-17.334797],[-63.242119,-17.334794],[-63.242119,-17.334792],[-63.242118,-17.33479],[-63.242118,-17.334788],[-63.242118,-17.334786],[-63.242118,-17.334783],[-63.242118,-17.334781],[-63.242119,-17.334779],[-63.242119,-17.334777],[-63.242119,-17.334775],[-63.24212,-17.334772],[-63.24212,-17.33477],[-63.242121,-17.334768],[-63.242121,-17.334766],[-63.242122,-17.334764],[-63.242123,-17.334762],[-63.242124,-17.33476],[-63.242125,-17.334758],[-63.242126,-17.334756],[-63.242127,-17.334754],[-63.242128,-17.334752],[-63.242129,-17.33475],[-63.242129,-17.33475]]},"properties":{"description":"MZ","styleUrl":"#line1","stroke-opacity":1,"stroke":"#000000","stroke-width":1}},{"type":"Feature","geometry":{"type":"LineString","coordinates":[[-63.241987,-17.334952],[-63.241843,-17.335157]]},"properties":{"description":"MZ","styleUrl":"#line1","stroke-opacity":1,"stroke":"#000000","stroke-width":1}},{"type":"Feature","geometry":{"type":"LineString","coordinates":[[-63.241987,-17.334952],[-63.241988,-17.334951],[-63.24199,-17.334949],[-63.241991,-17.334947],[-63.241993,-17.334945],[-63.241994,-17.334944],[-63.241996,-17.334942],[-63.241998,-17.334941],[-63.241999,-17.334939],[-63.242001,-17.334938],[-63.242003,-17.334937],[-63.242005,-17.334935],[-63.242007,-17.334934],[-63.242009,-17.334933],[-63.242011,-17.334932],[-63.242013,-17.334931],[-63.242015,-17.33493],[-63.242017,-17.334929],[-63.242019,-17.334928],[-63.242021,-17.334928],[-63.242024,-17.334927],[-63.242026,-17.334926],[-63.242028,-17.334926],[-63.24203,-17.334926],[-63.242033,-17.334925],[-63.242035,-17.334925],[-63.242037,-17.334925],[-63.242039,-17.334925],[-63.242042,-17.334925],[-63.242044,-17.334925],[-63.242046,-17.334925],[-63.242049,-17.334925],[-63.242051,-17.334925],[-63.242053,-17.334926],[-63.242055,-17.334926],[-63.242058,-17.334926],[-63.24206,-17.334927],[-63.242062,-17.334928],[-63.242064,-17.334928],[-63.242066,-17.334929],[-63.242069,-17.33493],[-63.242071,-17.334931],[-63.242073,-17.334932],[-63.242075,-17.334933],[-63.242077,-17.334934],[-63.242079,-17.334935]]},"properties":{"description":"MZ","styleUrl":"#line1","stroke-opacity":1,"stroke":"#000000","stroke-width":1}},{"type":"Feature","geometry":{"type":"LineString","coordinates":[[-63.243261,-17.334997],[-63.242947,-17.335295]]},"properties":{"description":"MZ","styleUrl":"#line1","stroke-opacity":1,"stroke":"#000000","stroke-width":1}},{"type":"Feature","geometry":{"type":"LineString","coordinates":[[-63.242947,-17.335295],[-63.242945,-17.335296],[-63.242944,-17.335298],[-63.242942,-17.335299],[-63.24294,-17.335301],[-63.242938,-17.335302],[-63.242936,-17.335303],[-63.242934,-17.335304],[-63.242932,-17.335305],[-63.24293,-17.335306],[-63.242928,-17.335307],[-63.242926,-17.335308],[-63.242924,-17.335309],[-63.242922,-17.33531],[-63.24292,-17.335311],[-63.242917,-17.335311],[-63.242915,-17.335312],[-63.242913,-17.335312],[-63.242911,-17.335312],[-63.242908,-17.335313],[-63.242906,-17.335313],[-63.242904,-17.335313],[-63.242901,-17.335313],[-63.242899,-17.335313],[-63.242897,-17.335313],[-63.242895,-17.335313],[-63.242892,-17.335313],[-63.24289,-17.335312],[-63.242888,-17.335312],[-63.242885,-17.335311],[-63.242883,-17.335311],[-63.242881,-17.33531],[-63.242879,-17.33531],[-63.242877,-17.335309],[-63.242875,-17.335308],[-63.242873,-17.335307],[-63.24287,-17.335306],[-63.242868,-17.335305],[-63.242866,-17.335304],[-63.242864,-17.335303],[-63.242864,-17.335302]]},"properties":{"description":"MZ","styleUrl":"#line1","stroke-opacity":1,"stroke":"#000000","stroke-width":1}},{"type":"Feature","geometry":{"type":"LineString","coordinates":[[-63.241088,-17.336484],[-63.240801,-17.336299]]},"properties":{"description":"LOTE","styleUrl":"#line1","stroke-opacity":1,"stroke":"#000000","stroke-width":1}},{"type":"Feature","geometry":{"type":"LineString","coordinates":[[-63.240875,-17.336232],[-63.241162,-17.336418]]},"properties":{"description":"LOTE","styleUrl":"#line1","stroke-opacity":1,"stroke":"#000000","stroke-width":1}},{"type":"Feature","geometry":{"type":"LineString","coordinates":[[-63.243474,-17.334986],[-63.242973,-17.33546]]},"properties":{"description":"MZ","styleUrl":"#line1","stroke-opacity":1,"stroke":"#000000","stroke-width":1}},{"type":"Feature","geometry":{"type":"LineString","coordinates":[[-63.242973,-17.33546],[-63.242529,-17.335881]]},"properties":{"description":"MZ","styleUrl":"#line1","stroke-opacity":1,"stroke":"#000000","stroke-width":1}},{"type":"Feature","geometry":{"type":"LineString","coordinates":[[-63.243474,-17.334986],[-63.243916,-17.334521]]},"properties":{"description":"MZ","styleUrl":"#line1","stroke-opacity":1,"stroke":"#000000","stroke-width":1}},{"type":"Feature","geometry":{"type":"LineString","coordinates":[[-63.241054,-17.336778],[-63.240643,-17.336514]]},"properties":{"description":"MZ","styleUrl":"#line1","stroke-opacity":1,"stroke":"#000000","stroke-width":1}},{"type":"Feature","geometry":{"type":"LineString","coordinates":[[-63.240559,-17.336521],[-63.240217,-17.336849]]},"properties":{"description":"MZ","styleUrl":"#line1","stroke-opacity":1,"stroke":"#000000","stroke-width":1}},{"type":"Feature","geometry":{"type":"LineString","coordinates":[[-63.241054,-17.336778],[-63.241056,-17.33678],[-63.241058,-17.336781],[-63.24106,-17.336782],[-63.241061,-17.336784],[-63.241063,-17.336785],[-63.241065,-17.336787],[-63.241066,-17.336788],[-63.241068,-17.33679],[-63.241069,-17.336792],[-63.241071,-17.336793],[-63.241072,-17.336795],[-63.241073,-17.336797],[-63.241074,-17.336799],[-63.241076,-17.336801],[-63.241077,-17.336803],[-63.241078,-17.336805],[-63.241078,-17.336807],[-63.241079,-17.336809],[-63.24108,-17.336811],[-63.241081,-17.336813],[-63.241081,-17.336815],[-63.241082,-17.336817],[-63.241082,-17.33682],[-63.241083,-17.336822],[-63.241083,-17.336824],[-63.241083,-17.336826],[-63.241083,-17.336828],[-63.241083,-17.336831],[-63.241083,-17.336833],[-63.241083,-17.336835],[-63.241083,-17.336837],[-63.241083,-17.336839],[-63.241082,-17.336842],[-63.241082,-17.336844],[-63.241081,-17.336846],[-63.241081,-17.336848],[-63.24108,-17.33685],[-63.241079,-17.336852],[-63.241079,-17.336854],[-63.241078,-17.336856],[-63.241077,-17.336858],[-63.241076,-17.33686],[-63.241075,-17.336862],[-63.241073,-17.336864],[-63.241072,-17.336866],[-63.241071,-17.336868],[-63.24107,-17.33687],[-63.241068,-17.336871],[-63.241067,-17.336873],[-63.241065,-17.336875],[-63.241063,-17.336876],[-63.241062,-17.336878],[-63.24106,-17.336879],[-63.241058,-17.33688]]},"properties":{"description":"MZ","styleUrl":"#line1","stroke-opacity":1,"stroke":"#000000","stroke-width":1}},{"type":"Feature","geometry":{"type":"LineString","coordinates":[[-63.240559,-17.336521],[-63.240561,-17.33652],[-63.240563,-17.336518],[-63.240565,-17.336517],[-63.240566,-17.336516],[-63.240568,-17.336514],[-63.24057,-17.336513],[-63.240572,-17.336512],[-63.240574,-17.336511],[-63.240576,-17.33651],[-63.240578,-17.336509],[-63.24058,-17.336508],[-63.240582,-17.336507],[-63.240585,-17.336506],[-63.240587,-17.336506],[-63.240589,-17.336505],[-63.240591,-17.336504],[-63.240593,-17.336504],[-63.240596,-17.336504],[-63.240598,-17.336503],[-63.2406,-17.336503],[-63.240603,-17.336503],[-63.240605,-17.336503],[-63.240607,-17.336503],[-63.240609,-17.336503],[-63.240612,-17.336503],[-63.240614,-17.336503],[-63.240616,-17.336504],[-63.240619,-17.336504],[-63.240621,-17.336504],[-63.240623,-17.336505],[-63.240625,-17.336506],[-63.240627,-17.336506],[-63.24063,-17.336507],[-63.240632,-17.336508],[-63.240634,-17.336509],[-63.240636,-17.33651],[-63.240638,-17.336511],[-63.24064,-17.336512],[-63.240642,-17.336513],[-63.240643,-17.336514]]},"properties":{"description":"MZ","styleUrl":"#line1","stroke-opacity":1,"stroke":"#000000","stroke-width":1}},{"type":"Feature","geometry":{"type":"LineString","coordinates":[[-63.242513,-17.333749],[-63.242482,-17.333729]]},"properties":{"description":"F","styleUrl":"#line1","stroke-opacity":1,"stroke":"#000000","stroke-width":1}},{"type":"Feature","geometry":{"type":"LineString","coordinates":[[-63.242338,-17.334962],[-63.242417,-17.33485]]},"properties":{"description":"0","styleUrl":"#line1","stroke-opacity":1,"stroke":"#000000","stroke-width":1}},{"type":"Feature","geometry":{"type":"LineString","coordinates":[[-63.242172,-17.33469],[-63.242417,-17.334849]]},"properties":{"description":"0","styleUrl":"#line1","stroke-opacity":1,"stroke":"#000000","stroke-width":1}},{"type":"Feature","geometry":{"type":"LineString","coordinates":[[-63.242224,-17.334615],[-63.24247,-17.334775]]},"properties":{"description":"0","styleUrl":"#line1","stroke-opacity":1,"stroke":"#000000","stroke-width":1}},{"type":"Feature","geometry":{"type":"LineString","coordinates":[[-63.242277,-17.334541],[-63.242522,-17.3347]]},"properties":{"description":"0","styleUrl":"#line1","stroke-opacity":1,"stroke":"#000000","stroke-width":1}},{"type":"Feature","geometry":{"type":"LineString","coordinates":[[-63.24233,-17.334466],[-63.242575,-17.334625]]},"properties":{"description":"0","styleUrl":"#line1","stroke-opacity":1,"stroke":"#000000","stroke-width":1}},{"type":"Feature","geometry":{"type":"LineString","coordinates":[[-63.243288,-17.334072],[-63.243054,-17.333921]]},"properties":{"description":"DIS","styleUrl":"#line1","stroke-opacity":1,"stroke":"#000000","stroke-width":1}},{"type":"Feature","geometry":{"type":"LineString","coordinates":[[-63.242654,-17.334512],[-63.242496,-17.334737]]},"properties":{"description":"LOTE","styleUrl":"#line1","stroke-opacity":1,"stroke":"#000000","stroke-width":1}},{"type":"Feature","geometry":{"type":"LineString","coordinates":[[-63.243029,-17.334755],[-63.242871,-17.33498]]},"properties":{"description":"LOTE","styleUrl":"#line1","stroke-opacity":1,"stroke":"#000000","stroke-width":1}},{"type":"Feature","geometry":{"type":"LineString","coordinates":[[-63.242871,-17.33498],[-63.242496,-17.334737]]},"properties":{"description":"LOTE","styleUrl":"#line1","stroke-opacity":1,"stroke":"#000000","stroke-width":1}},{"type":"Feature","geometry":{"type":"LineString","coordinates":[[-63.240748,-17.336347],[-63.241139,-17.335994]]},"properties":{"description":"MZ","styleUrl":"#line1","stroke-opacity":1,"stroke":"#000000","stroke-width":1}},{"type":"Feature","geometry":{"type":"LineString","coordinates":[[-63.241139,-17.335994],[-63.241558,-17.335587]]},"properties":{"description":"MZ","styleUrl":"#line1","stroke-opacity":1,"stroke":"#000000","stroke-width":1}},{"type":"Feature","geometry":{"type":"LineString","coordinates":[[-63.241642,-17.335579],[-63.242157,-17.335913]]},"properties":{"description":"MZ","styleUrl":"#line1","stroke-opacity":1,"stroke":"#000000","stroke-width":1}},{"type":"Feature","geometry":{"type":"LineString","coordinates":[[-63.242157,-17.335913],[-63.242159,-17.335914],[-63.242162,-17.335916],[-63.242164,-17.335918],[-63.242166,-17.33592],[-63.242168,-17.335922],[-63.24217,-17.335924],[-63.242172,-17.335926],[-63.242174,-17.335928],[-63.242176,-17.33593],[-63.242178,-17.335932],[-63.24218,-17.335935],[-63.242181,-17.335937],[-63.242183,-17.33594],[-63.242184,-17.335942],[-63.242186,-17.335945],[-63.242187,-17.335947],[-63.242188,-17.33595],[-63.242189,-17.335952],[-63.24219,-17.335955],[-63.242191,-17.335958],[-63.242192,-17.335961],[-63.242192,-17.335963],[-63.242193,-17.335966],[-63.242193,-17.335969],[-63.242194,-17.335972],[-63.242194,-17.335975],[-63.242194,-17.335977],[-63.242194,-17.33598],[-63.242194,-17.335983],[-63.242194,-17.335986],[-63.242194,-17.335989],[-63.242193,-17.335992],[-63.242193,-17.335994],[-63.242192,-17.335997],[-63.242192,-17.336],[-63.242191,-17.336003],[-63.24219,-17.336005],[-63.242189,-17.336008],[-63.242188,-17.336011],[-63.242187,-17.336013],[-63.242186,-17.336016],[-63.242184,-17.336018],[-63.242183,-17.336021],[-63.242181,-17.336023],[-63.24218,-17.336026],[-63.242178,-17.336028],[-63.242176,-17.33603],[-63.242174,-17.336032],[-63.242172,-17.336035],[-63.24217,-17.336037],[-63.242168,-17.336039],[-63.242166,-17.336041],[-63.242164,-17.336043],[-63.242162,-17.336044]]},"properties":{"description":"MZ","styleUrl":"#line1","stroke-opacity":1,"stroke":"#000000","stroke-width":1}},{"type":"Feature","geometry":{"type":"LineString","coordinates":[[-63.242162,-17.336044],[-63.241268,-17.336722]]},"properties":{"description":"MZ","styleUrl":"#line1","stroke-opacity":1,"stroke":"#000000","stroke-width":1}},{"type":"Feature","geometry":{"type":"LineString","coordinates":[[-63.241268,-17.336722],[-63.241266,-17.336723],[-63.241264,-17.336724],[-63.241262,-17.336725],[-63.24126,-17.336727],[-63.241258,-17.336728],[-63.241256,-17.336729],[-63.241254,-17.33673],[-63.241252,-17.33673],[-63.24125,-17.336731],[-63.241248,-17.336732],[-63.241246,-17.336733],[-63.241243,-17.336733],[-63.241241,-17.336734],[-63.241239,-17.336734],[-63.241237,-17.336735],[-63.241234,-17.336735],[-63.241232,-17.336735],[-63.24123,-17.336735],[-63.241227,-17.336735],[-63.241225,-17.336735],[-63.241223,-17.336735],[-63.241221,-17.336735],[-63.241218,-17.336735],[-63.241216,-17.336734],[-63.241214,-17.336734],[-63.241211,-17.336733],[-63.241209,-17.336733],[-63.241207,-17.336732],[-63.241205,-17.336731],[-63.241203,-17.336731],[-63.241201,-17.33673],[-63.241199,-17.336729],[-63.241196,-17.336728],[-63.241194,-17.336727],[-63.241192,-17.336726],[-63.241191,-17.336725],[-63.24119,-17.336724]]},"properties":{"description":"MZ","styleUrl":"#line1","stroke-opacity":1,"stroke":"#000000","stroke-width":1}},{"type":"Feature","geometry":{"type":"LineString","coordinates":[[-63.24119,-17.336724],[-63.240757,-17.336446]]},"properties":{"description":"MZ","styleUrl":"#line1","stroke-opacity":1,"stroke":"#000000","stroke-width":1}},{"type":"Feature","geometry":{"type":"LineString","coordinates":[[-63.240757,-17.336446],[-63.240755,-17.336444],[-63.240753,-17.336443],[-63.240751,-17.336442],[-63.240749,-17.33644],[-63.240748,-17.336439],[-63.240746,-17.336437],[-63.240745,-17.336435],[-63.240743,-17.336434],[-63.240742,-17.336432],[-63.24074,-17.33643],[-63.240739,-17.336428],[-63.240738,-17.336427],[-63.240736,-17.336425],[-63.240735,-17.336423],[-63.240734,-17.336421],[-63.240733,-17.336419],[-63.240732,-17.336417],[-63.240731,-17.336415],[-63.240731,-17.336413],[-63.24073,-17.336411],[-63.240729,-17.336408],[-63.240729,-17.336406],[-63.240728,-17.336404],[-63.240728,-17.336402],[-63.240728,-17.3364],[-63.240728,-17.336398],[-63.240727,-17.336395],[-63.240727,-17.336393],[-63.240727,-17.336391],[-63.240728,-17.336389],[-63.240728,-17.336387],[-63.240728,-17.336384],[-63.240728,-17.336382],[-63.240729,-17.33638],[-63.240729,-17.336378],[-63.24073,-17.336376],[-63.240731,-17.336374],[-63.240731,-17.336371],[-63.240732,-17.336369],[-63.240733,-17.336367],[-63.240734,-17.336365],[-63.240735,-17.336363],[-63.240736,-17.336361],[-63.240737,-17.33636],[-63.240739,-17.336358],[-63.24074,-17.336356],[-63.240741,-17.336354],[-63.240743,-17.336352],[-63.240744,-17.336351],[-63.240746,-17.336349],[-63.240747,-17.336348],[-63.240748,-17.336347]]},"properties":{"description":"MZ","styleUrl":"#line1","stroke-opacity":1,"stroke":"#000000","stroke-width":1}},{"type":"Feature","geometry":{"type":"LineString","coordinates":[[-63.242157,-17.335913],[-63.242049,-17.335843],[-63.241864,-17.336105],[-63.241981,-17.336181],[-63.242162,-17.336044]]},"properties":{"description":"LOTE","styleUrl":"#line1","stroke-opacity":1,"stroke":"#000000","stroke-width":1}},{"type":"Feature","geometry":{"type":"LineString","coordinates":[[-63.243025,-17.335221],[-63.243114,-17.335137]]},"properties":{"description":"LOTE","styleUrl":"#line1","stroke-opacity":1,"stroke":"#000000","stroke-width":1}},{"type":"Feature","geometry":{"type":"LineString","coordinates":[[-63.243114,-17.335137],[-63.242871,-17.33498]]},"properties":{"description":"LOTE","styleUrl":"#line1","stroke-opacity":1,"stroke":"#000000","stroke-width":1}},{"type":"Feature","geometry":{"type":"LineString","coordinates":[[-63.243551,-17.334172],[-63.243411,-17.334108],[-63.243348,-17.334198],[-63.243565,-17.334338],[-63.243645,-17.334241],[-63.243551,-17.334172]]},"properties":{"description":"LOTE","styleUrl":"#line1","stroke-opacity":1,"stroke":"#000000","stroke-width":1}}]}